{
    "links": {
        "self": "http://www.neowsapp.com/rest/v1/neo/3629084?api_key=iIulBulltgU6a56xZRHN4H3l9WmuAYTsLGpBGhQ2"
    },
    "id": "3629084",
    "neo_reference_id": "3629084",
    "name": "(2013 EB)",
    "designation": "2013 EB",
    "nasa_jpl_url": "http://ssd.jpl.nasa.gov/sbdb.cgi?sstr=3629084",
    "absolute_magnitude_h": 27.2,
    "estimated_diameter": {
        "kilometers": {
            "estimated_diameter_min": 0.0096506147,
            "estimated_diameter_max": 0.0215794305
        },
        "meters": {
            "estimated_diameter_min": 9.6506146958,
            "estimated_diameter_max": 21.5794304844
        },
        "miles": {
            "estimated_diameter_min": 0.0059966121,
            "estimated_diameter_max": 0.0134088323
        },
        "feet": {
            "estimated_diameter_min": 31.6621227185,
            "estimated_diameter_max": 70.7986587106
        }
    },
    "is_potentially_hazardous_asteroid": false,
    "close_approach_data": [
        {
            "close_approach_date": "2013-02-28",
            "close_approach_date_full": "2013-Feb-28 03:58",
            "epoch_date_close_approach": 1362023880000,
            "relative_velocity": {
                "kilometers_per_second": "13.5722003662",
                "kilometers_per_hour": "48859.9213183823",
                "miles_per_hour": "30359.6549991915"
            },
            "miss_distance": {
                "astronomical": "0.0026342604",
                "lunar": "1.0247272956",
                "kilometers": "394079.744865348",
                "miles": "244869.7986958824"
            },
            "orbiting_body": "Earth"
        },
        {
            "close_approach_date": "2013-02-28",
            "close_approach_date_full": "2013-Feb-28 10:52",
            "epoch_date_close_approach": 1362048720000,
            "relative_velocity": {
                "kilometers_per_second": "13.8820613083",
                "kilometers_per_hour": "49975.4207100521",
                "miles_per_hour": "31052.7829406432"
            },
            "miss_distance": {
                "astronomical": "0.0033210374",
                "lunar": "1.2918835486",
                "kilometers": "496820.121230338",
                "miles": "308709.7082731444"
            },
            "orbiting_body": "Moon"
        },
        {
            "close_approach_date": "2060-03-16",
            "close_approach_date_full": "2060-Mar-16 17:09",
            "epoch_date_close_approach": 2846682540000,
            "relative_velocity": {
                "kilometers_per_second": "16.6688031253",
                "kilometers_per_hour": "60007.6912511873",
                "miles_per_hour": "37286.4457110502"
            },
            "miss_distance": {
                "astronomical": "0.0188190725",
                "lunar": "7.3206192025",
                "kilometers": "2815293.161375575",
                "miles": "1749342.052409935"
            },
            "orbiting_body": "Mars"
        },
        {
            "close_approach_date": "2063-03-26",
            "close_approach_date_full": "2063-Mar-26 05:23",
            "epoch_date_close_approach": 2942112180000,
            "relative_velocity": {
                "kilometers_per_second": "6.6782511628",
                "kilometers_per_hour": "24041.7041859139",
                "miles_per_hour": "14938.5800259641"
            },
            "miss_distance": {
                "astronomical": "0.104740751",
                "lunar": "40.744152139",
                "kilometers": "15668993.25180037",
                "miles": "9736260.930250306"
            },
            "orbiting_body": "Venus"
        }
    ],
    "orbital_data": {
        "orbit_id": "6",
        "orbit_determination_date": "2019-07-11 05:59:45",
        "first_observation_date": "2013-03-02",
        "last_observation_date": "2013-03-03",
        "data_arc_in_days": 1,
        "observations_used": 18,
        "orbit_uncertainty": "7",
        "minimum_orbit_intersection": ".00192743",
        "jupiter_tisserand_invariant": "3.622",
        "epoch_osculation": "2459000.5",
        "eccentricity": ".5891917397353682",
        "semi_major_axis": "1.982164371620958",
        "inclination": "1.278041775773955",
        "ascending_node_longitude": "154.5151026508375",
        "orbital_period": "1019.313850210344",
        "perihelion_distance": ".8142894970641428",
        "perihelion_argument": "306.2895957668528",
        "aphelion_distance": "3.150039246177772",
        "perihelion_time": "2459370.016855815058",
        "mean_anomaly": "229.4944956688563",
        "mean_motion": ".3531787583634922",
        "equinox": "J2000",
        "orbit_class": {
            "orbit_class_type": "APO",
            "orbit_class_description": "Near-Earth asteroid orbits which cross the Earth’s orbit similar to that of 1862 Apollo",
            "orbit_class_range": "a (semi-major axis) > 1.0 AU; q (perihelion) < 1.017 AU"
        }
    },
    "is_sentry_object": false
}